{
    "links": {
        "self": "http://www.neowsapp.com/rest/v1/neo/3989356?api_key=iIulBulltgU6a56xZRHN4H3l9WmuAYTsLGpBGhQ2"
    },
    "id": "3989356",
    "neo_reference_id": "3989356",
    "name": "(2020 CC)",
    "designation": "2020 CC",
    "nasa_jpl_url": "http://ssd.jpl.nasa.gov/sbdb.cgi?sstr=3989356",
    "absolute_magnitude_h": 28.057,
    "estimated_diameter": {
        "kilometers": {
            "estimated_diameter_min": 0.0065036173,
            "estimated_diameter_max": 0.0145425303
        },
        "meters": {
            "estimated_diameter_min": 6.5036172846,
            "estimated_diameter_max": 14.5425303479
        },
        "miles": {
            "estimated_diameter_min": 0.0040411592,
            "estimated_diameter_max": 0.0090363066
        },
        "feet": {
            "estimated_diameter_min": 21.3373277319,
            "estimated_diameter_max": 47.7117152667
        }
    },
    "is_potentially_hazardous_asteroid": false,
    "close_approach_data": [
        {
            "close_approach_date": "2020-02-04",
            "close_approach_date_full": "2020-Feb-04 17:10",
            "epoch_date_close_approach": 1580836200000,
            "relative_velocity": {
                "kilometers_per_second": "11.1112016658",
                "kilometers_per_hour": "40000.3259968058",
                "miles_per_hour": "24854.6470061819"
            },
            "miss_distance": {
                "astronomical": "0.0056663589",
                "lunar": "2.2042136121",
                "kilometers": "847675.222095543",
                "miles": "526720.9586347734"
            },
            "orbiting_body": "Moon"
        },
        {
            "close_approach_date": "2020-02-05",
            "close_approach_date_full": "2020-Feb-05 00:20",
            "epoch_date_close_approach": 1580862000000,
            "relative_velocity": {
                "kilometers_per_second": "10.7542033599",
                "kilometers_per_hour": "38715.1320957487",
                "miles_per_hour": "24056.0774958279"
            },
            "miss_distance": {
                "astronomical": "0.0047559847",
                "lunar": "1.8500780483",
                "kilometers": "711485.180872589",
                "miles": "442096.3911121682"
            },
            "orbiting_body": "Earth"
        },
        {
            "close_approach_date": "2021-10-20",
            "close_approach_date_full": "2021-Oct-20 15:40",
            "epoch_date_close_approach": 1634744400000,
            "relative_velocity": {
                "kilometers_per_second": "4.3845428791",
                "kilometers_per_hour": "15784.3543646997",
                "miles_per_hour": "9807.7839662213"
            },
            "miss_distance": {
                "astronomical": "1.9154982625",
                "lunar": "745.1288241125",
                "kilometers": "286554460.058700875",
                "miles": "178056684.882287075"
            },
            "orbiting_body": "Juptr"
        },
        {
            "close_approach_date": "2141-01-02",
            "close_approach_date_full": "2141-Jan-02 07:38",
            "epoch_date_close_approach": 5396398680000,
            "relative_velocity": {
                "kilometers_per_second": "3.4711066793",
                "kilometers_per_hour": "12495.9840454908",
                "miles_per_hour": "7764.5185309329"
            },
            "miss_distance": {
                "astronomical": "1.4453772595",
                "lunar": "562.2517539455",
                "kilometers": "216225359.367637265",
                "miles": "134356208.130893657"
            },
            "orbiting_body": "Juptr"
        }
    ],
    "orbital_data": {
        "orbit_id": "6",
        "orbit_determination_date": "2020-03-05 05:05:02",
        "first_observation_date": "2020-02-01",
        "last_observation_date": "2020-02-05",
        "data_arc_in_days": 4,
        "observations_used": 49,
        "orbit_uncertainty": "7",
        "minimum_orbit_intersection": ".00217668",
        "jupiter_tisserand_invariant": "3.399",
        "epoch_osculation": "2459000.5",
        "eccentricity": ".5840135164024566",
        "semi_major_axis": "2.22433313262491",
        "inclination": "3.287429415588263",
        "ascending_node_longitude": "134.025611962945",
        "orbital_period": "1211.708552612983",
        "perihelion_distance": ".9252925181901447",
        "perihelion_argument": "35.84321208291475",
        "aphelion_distance": "3.523373747059676",
        "perihelion_time": "2458910.244178395777",
        "mean_anomaly": "26.81510806163143",
        "mean_motion": ".2971011463306749",
        "equinox": "J2000",
        "orbit_class": {
            "orbit_class_type": "APO",
            "orbit_class_description": "Near-Earth asteroid orbits which cross the Earth’s orbit similar to that of 1862 Apollo",
            "orbit_class_range": "a (semi-major axis) > 1.0 AU; q (perihelion) < 1.017 AU"
        }
    },
    "is_sentry_object": false
}